     2.10           GLONASS NAV DATA                        RINEX VERSION / TYPE
WaNJOIG 1.3c        SAPOS               2020-01-14 14:20:03 PGM / RUN BY / DATE 
    18                                                      LEAP SECONDS
  2019    11    21   -0.139698386192D-08                    CORR TO SYSTEM TIME 
                                                            END OF HEADER       
18 19 11 21  8 15  0.0  .152485445142E-04  .909494701773E-12  .288000000000E+05
     .167356669922E+05 -.119348621368E+01  .186264514923E-08  .000000000000E+00
     .157972919922E+05 -.955352783203E+00  .000000000000E+00 -.300000000000E+01
    -.110345908203E+05 -.316824531555E+01  .931322574615E-09  .000000000000E+00
03 19 11 21  8 45  0.0  .520236790180E-05  .000000000000E+00  .306000000000E+05
    -.127097656250E+05 -.138130664825E+01 -.186264514923E-08  .000000000000E+00
     .176080849609E+05  .120251750946E+01 -.931322574615E-09  .500000000000E+01
     .133735864258E+05 -.290725231171E+01 -.186264514923E-08  .000000000000E+00
05 19 11 21  8 45  0.0  .398131087422E-04  .909494701773E-12  .306300000000E+05
     .167938608398E+05 -.215375614166E+01  .279396772385E-08  .000000000000E+00
    -.139529296875E+04  .150020408630E+01 -.931322574615E-09  .100000000000E+01
     .191596303711E+05  .199508476257E+01 -.186264514923E-08  .000000000000E+00
06 19 11 21  8 45  0.0  .166065059602E-03  .000000000000E+00  .306300000000E+05
     .207497382813E+05 -.388146400452E+00  .465661287308E-08  .000000000000E+00
    -.145928481445E+05  .128775596619E+00  .000000000000E+00 -.400000000000E+01
     .279375781250E+04  .352978038788E+01  .000000000000E+00  .000000000000E+00
10 19 11 21  8 15  0.0 -.515617430210E-04  .000000000000E+00  .288000000000E+05
    -.688659765625E+04 -.140715599060E+00 -.931322574615E-09  .000000000000E+00
    -.199007885742E+05 -.197278022766E+01  .000000000000E+00 -.500000000000E+01
     .144289736328E+05 -.278405570984E+01 -.931322574615E-09  .000000000000E+00
12 19 11 21  8 45  0.0  .811032950878E-04  .363797880709E-11  .306300000000E+05
    -.111418579102E+05 -.430961608887E+00 -.931322574615E-09  .000000000000E+00
    -.966903320313E+04 -.281429481506E+01  .000000000000E+00 -.100000000000E+01
     .208479677734E+05 -.153565311432E+01 -.186264514923E-08  .000000000000E+00
13 19 11 21  8 45  0.0 -.312644988298E-04  .000000000000E+00  .306300000000E+05
    -.892637158203E+04 -.340032577515E+00 -.931322574615E-09  .000000000000E+00
     .102226386719E+05 -.293994426727E+01 -.931322574615E-09 -.200000000000E+01
     .215867456055E+05  .125074577332E+01 -.279396772385E-08  .000000000000E+00
14 19 11 21  8 45  0.0  .452827662230E-04  .000000000000E+00  .306600000000E+05
    -.172713085938E+04 -.205850601196E-01 -.931322574615E-09  .000000000000E+00
     .235732104492E+05 -.132192325592E+01 -.931322574615E-09 -.700000000000E+01
     .962362744141E+04  .323873424530E+01 -.186264514923E-08  .000000000000E+00
19 19 11 21  8 45  0.0 -.650407746434E-04 -.181898940355E-11  .306300000000E+05
     .230207539063E+05 -.186729431152E-02  .279396772385E-08  .000000000000E+00
     .109408222656E+05 -.272139549255E+00 -.931322574615E-09  .300000000000E+01
    -.833405273438E+03 -.360790252686E+01  .000000000000E+00  .000000000000E+00
20 19 11 21  8 45  0.0 -.396767631173E-03  .000000000000E+00  .306300000000E+05
     .189468549805E+05  .220004558563E+01  .372529029846E-08  .000000000000E+00
     .296718261719E+03  .822231292725E+00 -.931322574615E-09  .200000000000E+01
     .171060146484E+05 -.244927883148E+01 -.186264514923E-08  .000000000000E+00
21 19 11 21  8 45  0.0 -.866269692779E-04 -.272848410532E-11  .306300000000E+05
     .225247216797E+04  .290886497498E+01  .931322574615E-09  .000000000000E+00
    -.104470830078E+05  .127165222168E+01  .000000000000E+00  .400000000000E+01
     .231670981445E+05  .287497520447E+00 -.186264514923E-08  .000000000000E+00
06 19 11 21  9 15  0.0  .166065990925E-03  .000000000000E+00  .324000000000E+05
     .195133823242E+05 -.949736595154E+00  .372529029846E-08  .000000000000E+00
    -.137847250977E+05  .789312362671E+00 -.931322574615E-09 -.400000000000E+01
     .895747314453E+04  .327434062958E+01  .000000000000E+00  .000000000000E+00
19 19 11 21  9 15  0.0 -.650444999337E-04 -.181898940355E-11  .324000000000E+05
     .222348266602E+05 -.877622604370E+00  .186264514923E-08  .000000000000E+00
     .101941879883E+05 -.514817237854E+00 -.931322574615E-09  .300000000000E+01
    -.721139746094E+04 -.343269348145E+01  .000000000000E+00  .000000000000E+00
13 19 11 21  9 15  0.0 -.312654301524E-04  .000000000000E+00  .324000000000E+05
    -.996804931641E+04 -.815979003906E+00 -.186264514923E-08  .000000000000E+00
     .479301220703E+04 -.304152774811E+01  .000000000000E+00 -.200000000000E+01
     .229736284180E+05  .280208587646E+00 -.279396772385E-08  .000000000000E+00
05 19 11 21  9 15  0.0  .398140400648E-04  .909494701773E-12  .324000000000E+05
     .128499975586E+05 -.218115139008E+01  .186264514923E-08  .000000000000E+00
     .183393164063E+04  .207089424133E+01 -.186264514923E-08  .100000000000E+01
     .219644399414E+05  .110111427307E+01 -.279396772385E-08  .000000000000E+00
14 19 11 21  9 15  0.0  .452836975455E-04  .000000000000E+00  .324000000000E+05
    -.208092480469E+04 -.400944709778E+00 -.931322574615E-09  .000000000000E+00
     .205398984375E+05 -.201464939117E+01 -.931322574615E-09 -.700000000000E+01
     .150066474609E+05  .270365524292E+01 -.186264514923E-08  .000000000000E+00
21 19 11 21  9 15  0.0 -.866316258907E-04 -.272848410532E-11  .324000000000E+05
     .763205810547E+04  .301770401001E+01  .186264514923E-08  .000000000000E+00
    -.856485839844E+04  .804400444031E+00 -.931322574615E-09  .400000000000E+01
     .227828613281E+05 -.711761474609E+00 -.186264514923E-08  .000000000000E+00
20 19 11 21  9 15  0.0 -.396774150431E-03  .000000000000E+00  .324000000000E+05
     .224467695313E+05  .164546108246E+01  .372529029846E-08  .000000000000E+00
     .127419531250E+04  .282716751099E+00 -.186264514923E-08  .200000000000E+01
     .120944228516E+05 -.308308124542E+01 -.931322574615E-09  .000000000000E+00
05 19 11 21  9 45  0.0  .398159027100E-04  .909494701773E-12  .342300000000E+05
     .910001708984E+04 -.194611930847E+01  .000000000000E+00  .000000000000E+00
     .596778515625E+04  .248873233795E+01 -.186264514923E-08  .100000000000E+01
     .230722978516E+05  .121793746948E+00 -.279396772385E-08  .000000000000E+00
06 19 11 21  9 45  0.0  .166067853570E-03  .000000000000E+00  .342300000000E+05
     .174758598633E+05 -.127078819275E+01  .372529029846E-08  .000000000000E+00
    -.117095576172E+05  .151891899109E+01 -.186264514923E-08 -.400000000000E+01
     .144290566406E+05  .276568317413E+01 -.931322574615E-09  .000000000000E+00
07 19 11 21  9 45  0.0 -.297129154205E-04  .000000000000E+00  .350100000000E+05
     .149359804688E+05  .327033996582E-01  .372529029846E-08  .000000000000E+00
    -.206188500977E+05 -.303235054016E+00 -.931322574615E-09  .500000000000E+01
    -.186852539063E+04  .355311298370E+01  .931322574615E-09  .000000000000E+00
13 19 11 21  9 45  0.0 -.312672927976E-04  .000000000000E+00  .342300000000E+05
    -.118261591797E+05 -.122933101654E+01 -.931322574615E-09  .000000000000E+00
    -.544721191406E+03 -.284110069275E+01  .000000000000E+00 -.200000000000E+01
     .225824287109E+05 -.712052345276E+00 -.186264514923E-08  .000000000000E+00
14 19 11 21  9 45  0.0  .452846288681E-04  .000000000000E+00  .342300000000E+05
    -.324729394531E+04 -.908384323120E+00 -.186264514923E-08  .000000000000E+00
     .164648540039E+05 -.246801948547E+01  .000000000000E+00 -.700000000000E+01
     .192313725586E+05  .196009254456E+01 -.279396772385E-08  .000000000000E+00
15 19 11 21  9 45  0.0  .104842707515E-03  .000000000000E+00  .342600000000E+05
     .716807812500E+04 -.100733757019E+00 -.931322574615E-09  .000000000000E+00
     .239785214844E+05 -.686379432678E+00 -.931322574615E-09  .000000000000E+00
     .494906347656E+04  .348945999146E+01 -.931322574615E-09  .000000000000E+00
19 19 11 21  9 45  0.0 -.650482252240E-04 -.181898940355E-11  .342000000000E+05
     .198754008789E+05 -.172994041443E+01  .931322574615E-09  .000000000000E+00
     .924406835938E+04 -.498109817505E+00 -.931322574615E-09  .300000000000E+01
    -.130312924805E+05 -.299183082581E+01  .931322574615E-09  .000000000000E+00
20 19 11 21  9 45  0.0 -.396775081754E-03  .000000000000E+00  .342300000000E+05
     .247371914063E+05  .869872093201E+00  .279396772385E-08  .000000000000E+00
     .141023486328E+04 -.982837677002E-01 -.279396772385E-08  .200000000000E+01
     .614996484375E+04 -.347909259796E+01  .000000000000E+00  .000000000000E+00
21 19 11 21  9 45  0.0 -.866362825036E-04 -.272848410532E-11  .342300000000E+05
     .129284912109E+05  .281529998779E+01  .186264514923E-08  .000000000000E+00
    -.757301660156E+04  .300992965698E+00 -.186264514923E-08  .400000000000E+01
     .206374736328E+05 -.165662860870E+01 -.186264514923E-08  .000000000000E+00
14 19 11 21 10 15  0.0  .452855601907E-04  .000000000000E+00  .360000000000E+05
    -.536743164063E+04 -.144274711609E+01 -.186264514923E-08  .000000000000E+00
     .118280869141E+05 -.263448524475E+01  .000000000000E+00 -.700000000000E+01
     .219720800781E+05  .106541824341E+01 -.279396772385E-08  .000000000000E+00
15 19 11 21 10 15  0.0  .104842707515E-03  .000000000000E+00  .360000000000E+05
     .655346679688E+04 -.608894348145E+00 -.931322574615E-09  .000000000000E+00
     .220937026367E+05 -.137484264374E+01 -.931322574615E-09  .000000000000E+00
     .109577612305E+05  .314359188080E+01 -.186264514923E-08  .000000000000E+00
06 19 11 21 10 15  0.0  .166068784893E-03  .000000000000E+00  .360000000000E+05
     .150976723633E+05 -.132815361023E+01  .186264514923E-08  .000000000000E+00
    -.834174365234E+04  .220672321320E+01 -.186264514923E-08 -.400000000000E+01
     .187850795898E+05  .204283428192E+01 -.186264514923E-08  .000000000000E+00
